[{"OBJECT_NAME":"GAOFEN-1","OBJECT_ID":"2013-018A","EPOCH":"2026-03-09T23:41:10.925664","MEAN_MOTION":14.76548234,"ECCENTRICITY":0.00163762,"INCLINATION":97.917,"RA_OF_ASC_NODE":143.0376,"ARG_OF_PERICENTER":223.3024,"MEAN_ANOMALY":136.69,"EPHEMERIS_TYPE":0,"CLASSIFICATION_TYPE":"U","NORAD_CAT_ID":39150,"ELEMENT_SET_NO":999,"REV_AT_EPOCH":69360,"BSTAR":0.00016125455,"MEAN_MOTION_DOT":1.076e-5,"MEAN_MOTION_DDOT":0},{"OBJECT_NAME":"FR 1","OBJECT_ID":"1965-101A","EPOCH":"2026-03-09T16:40:47.412480","MEAN_MOTION":14.7151213,"ECCENTRICITY":0.00057713,"INCLINATION":75.8668,"RA_OF_ASC_NODE":162.6897,"ARG_OF_PERICENTER":342.9819,"MEAN_ANOMALY":17.1168,"EPHEMERIS_TYPE":0,"CLASSIFICATION_TYPE":"U","NORAD_CAT_ID":1814,"ELEMENT_SET_NO":999,"REV_AT_EPOCH":4146,"BSTAR":0.00020127195,"MEAN_MOTION_DOT":1.233e-5,"MEAN_MOTION_DDOT":0}]
